STARLINK-2204
1 27418C 21006F   21325.13091671  .01237648  00000-0  27202-1 0  3252
2 27418  97.4972  21.3521 0004676 242.1175 168.5648 15.42789393    13
